From:	Horizons Ephemeris System <horizons@ssd.jpl.nasa.gov>
Sent:	Friday, December 4, 2020 12:36 PM
Subject:	[Horizons] MAJOR BODY #C(usr={-90.,-65.,.600^G}@301)_T(301) (1/1)

 Automated mail xmit by MAIL_REQUEST, PID= 6773 Fri Dec  4 10:35:36 2020
++++++++++++++++++++++++++++++++ (part 1 of 1)  +++++++++++++++++++++++++++++++
*******************************************************************************
 Revised: July 31, 2013             Moon / (Earth)                          301
 
 GEOPHYSICAL DATA (updated 2018-Aug-15):
  Vol. mean radius, km  = 1737.53+-0.03    Mass, x10^22 kg       =    7.349
  Radius (gravity), km  = 1738.0           Surface emissivity    =    0.92
  Radius (IAU), km      = 1737.4           GM, km^3/s^2          = 4902.800066
  Density, g/cm^3       =    3.3437        GM 1-sigma, km^3/s^2  =  +-0.0001  
  V(1,0)                =   +0.21          Surface accel., m/s^2 =    1.62
  Earth/Moon mass ratio = 81.3005690769    Farside crust. thick. = ~80 - 90 km
  Mean crustal density  = 2.97+-.07 g/cm^3 Nearside crust. thick.= 58+-8 km 
  Heat flow, Apollo 15  = 3.1+-.6 mW/m^2   Mean angular diameter = 31'05.2"
  Heat flow, Apollo 17  = 2.2+-.5 mW/m^2   Sid. rot. rate, rad/s = 0.0000026617
  Geometric Albedo      = 0.12             Mean solar day        = 29.5306 d
  Obliquity to orbit    = 6.67 deg         Orbit period          = 27.321582 d
  Semi-major axis, a    = 384400 km        Eccentricity          = 0.05490
  Mean motion, rad/s    = 2.6616995x10^-6  Inclination           = 5.145 deg
  Apsidal period        = 3231.50 d        Nodal period          = 6798.38 d
                                 Perihelion  Aphelion    Mean
  Solar Constant (W/m^2)         1414+-7     1323+-7     1368+-7
  Maximum Planetary IR (W/m^2)   1314        1226        1268
  Minimum Planetary IR (W/m^2)      5.2         5.2         5.2
********************************************************************************
 
 
*******************************************************************************
Ephemeris / MAIL_REQUEST Fri Dec  4 10:35:35 2020 Pasadena, USA  / Horizons
*******************************************************************************
Target body name: Moon (301)                      {source: DE431mx}
Center body name: Moon (301)                      {source: DE431mx}
Center-site name: (user defined site below)
*******************************************************************************
Start time      : A.D. 2020-Jan-01 00:00:00.0000 TDB
Stop  time      : A.D. 2039-Jan-01 00:00:00.0000 TDB
Step-size       : 10000 steps
*******************************************************************************
Center geodetic : 270.000000,-65.000000,0.6000000 {E-lon(deg),Lat(deg),Alt(km)}
Center cylindric: 270.000000,734.510539,-1575.163 {E-lon(deg),Dxy(km),Dz(km)}
Center pole/equ : IAU_MOON                        {East-longitude positive}
Center radii    : 1737.4 x 1737.4 x 1737.4 km     {Equator, meridian, pole}    
Output units    : KM-S
Output type     : GEOMETRIC cartesian states
Output format   : 3 (position, velocity, LT, range, range-rate)
Reference frame : Ecliptic of J2000.0
*******************************************************************************
JDTDB
   X     Y     Z
   VX    VY    VZ
   LT    RG    RR
*******************************************************************************
$$SOE
2462846.940000002 = A.D. 2030-Dec-11 10:33:36.0001 TDB 
   7.685051442327965E+02  6.871201008279724E+01  1.557344696256455E+03
  -2.275807923817326E-04  1.942501051317065E-03  2.659902971356958E-05
   5.797343974543883E-03  1.738000000000000E+03  1.836531182852316E-19
2462847.634000001 = A.D. 2030-Dec-12 03:12:57.6001 TDB 
   7.456424913768421E+02  1.836060968318969E+02  1.559150434133760E+03
  -5.333801974439580E-04  1.881616318698024E-03  3.350203426063809E-05
   5.797343974543884E-03  1.738000000000000E+03 -3.193967274525766E-20
2462848.328000002 = A.D. 2030-Dec-12 19:52:19.2001 TDB 
   7.048111926745428E+02  2.934046470687675E+02  1.561345219917472E+03
  -8.256469371279492E-04  1.772900910710272E-03  3.954784355355656E-05
   5.797343974543883E-03  1.738000000000000E+03  1.596983637262884E-19
2462849.022000002 = A.D. 2030-Dec-13 12:31:40.8001 TDB 
   6.470475537980058E+02  3.953163772219616E+02  1.563872892860581E+03
  -1.096953726482797E-03  1.619111425064957E-03  4.458160429355923E-05
   5.797343974543884E-03  1.738000000000000E+03 -1.596983637262883E-20
2462849.716000001 = A.D. 2030-Dec-14 05:11:02.4001 TDB 
   5.738182419888278E+02  4.867500582039116E+02  1.566668760778531E+03
  -1.340403747742961E-03  1.424149969275800E-03  4.847421710972816E-05
   5.797343974543883E-03  1.738000000000000E+03 -8.783410004945859E-20
2462850.410000002 = A.D. 2030-Dec-14 21:50:24.0001 TDB 
   4.869831436961443E+02  5.653803902345668E+02  1.569661247560769E+03
  -1.549805997550848E-03  1.192965707224765E-03  5.112566793884015E-05
   5.797343974543884E-03  1.738000000000000E+03  1.596983637262883E-20
2462851.104000002 = A.D. 2030-Dec-15 14:29:45.6001 TDB 
   3.887482175062784E+02  6.292071610139058E+02  1.572773719234433E+03
  -1.719832932466058E-03  9.314297437077633E-04  5.246763801640295E-05
   5.797343974543883E-03  1.738000000000000E+03 -7.186426367682975E-20
2462851.798000002 = A.D. 2030-Dec-16 07:09:07.2001 TDB 
   2.816095271485981E+02  6.766061784339150E+02  1.575926442929427E+03
  -1.846156377623814E-03  6.461864533452024E-04  5.246531534660662E-05
   5.797343974543883E-03  1.738000000000000E+03  1.596983637262883E-20
2462852.492000001 = A.D. 2030-Dec-16 23:48:28.8001 TDB 
   1.682898659692783E+02  7.063706740046289E+02  1.579038629013961E+03
  -1.925558192179980E-03  3.444849716152883E-04  5.111834948842433E-05
   5.797343974543883E-03  1.738000000000000E+03  0.000000000000000E+00
2462853.186000002 = A.D. 2030-Dec-17 16:27:50.4001 TDB 
   5.166957624987144E+01  7.177421122819770E+02  1.582030503861150E+03
  -1.956012809243023E-03  3.399508984497423E-05  4.846091476317641E-05
   5.797343974543885E-03  1.738000000000000E+03  0.000000000000000E+00
2462853.880000002 = A.D. 2030-Dec-18 09:07:12.0001 TDB 
  -6.528668122802171E+01  7.104296091052174E+02  1.584825359388485E+03
  -1.936739473648959E-03 -2.773877831494124E-04  4.456087309380473E-05
   5.797343974543884E-03  1.738000000000001E+03  3.193967274525766E-20
2462854.574000001 = A.D. 2030-Dec-19 01:46:33.6001 TDB 
  -1.796053442404610E+02  6.846174507567810E+02  1.587351525793689E+03
  -1.868222771041101E-03 -5.817436260862692E-04  3.951805466852564E-05
   5.797343974543884E-03  1.738000000000000E+03 -1.596983637262883E-20
2462855.268000002 = A.D. 2030-Dec-19 18:25:55.2001 TDB 
  -2.883796296212885E+02  6.409605099103337E+02  1.589544215791110E+03
  -1.752200856198986E-03 -8.713296342067007E-04  3.346170064345844E-05
   5.797343974543885E-03  1.738000000000001E+03 -2.076078728441747E-19
2462855.962000002 = A.D. 2030-Dec-20 11:05:16.8001 TDB 
  -3.888435435104668E+02  5.805676645217030E+02  1.591347192030086E+03
  -1.591621625080092E-03 -1.138777688171977E-03  2.654713592293185E-05
   5.797343974543883E-03  1.738000000000000E+03  1.157813137015590E-19
2462856.656000002 = A.D. 2030-Dec-21 03:44:38.4001 TDB 
  -4.784423274590583E+02  5.049736344482179E+02  1.592714214103622E+03
  -1.390567910189178E-03 -1.377282375441115E-03  1.895176113824891E-05
   5.797343974543884E-03  1.738000000000000E+03  5.389819775762231E-20
2462857.350000001 = A.D. 2030-Dec-21 20:24:00.0001 TDB 
  -5.548975356781864E+02  4.160999493310138E+02  1.593610227459966E+03
  -1.154153589244607E-03 -1.580774709509163E-03  1.087047118927928E-05
   5.797343974543885E-03  1.738000000000000E+03 -6.188311594393672E-20
2462858.044000002 = A.D. 2030-Dec-22 13:03:21.6001 TDB 
  -6.162650752248938E+02  3.162060420906714E+02  1.594012263441975E+03
  -8.883932599447627E-04 -1.744077056204392E-03  2.510623014750956E-06
   5.797343974543884E-03  1.738000000000000E+03  1.392370108738576E-19
2462858.738000002 = A.D. 2030-Dec-23 05:42:43.2001 TDB 
  -6.609847211886832E+02  2.078317176808382E+02  1.593910027410880E+03
  -6.000488276824060E-04 -1.863035261522426E-03 -5.913312797452080E-06
   5.797343974543883E-03  1.738000000000000E+03 -6.387934549051534E-20
2462859.432000001 = A.D. 2030-Dec-23 22:22:04.8001 TDB 
  -6.879198382615393E+02  9.373246964523480E+01  1.593306160240531E+03
  -2.964569590217924E-04 -1.934624569263349E-03 -1.418527408753912E-05
   5.797343974543884E-03  1.738000000000000E+03  2.754796774278474E-19
2462860.126000002 = A.D. 2030-Dec-24 15:01:26.4001 TDB 
  -6.963862926818988E+02 -2.319069858745206E+01  1.592216167128003E+03
   1.465814569650615E-05 -1.957026602907841E-03 -2.209315736313093E-05
   5.797343974543883E-03  1.738000000000000E+03 -1.117888546084018E-19
2462860.820000002 = A.D. 2030-Dec-25 07:40:48.0001 TDB 
  -6.861698176121298E+02 -1.399651497181959E+02  1.590668016357436E+03
   3.253818261612485E-04 -1.929675445285193E-03 -2.943425266242479E-05
   5.797343974543884E-03  1.738000000000000E+03 -1.996229546578604E-20
2462861.514000001 = A.D. 2030-Dec-26 00:20:09.6001 TDB 
  -6.575313930829471E+02 -2.536222941815000E+02  1.588701419085573E+03
   6.278107974830986E-04 -1.853271660087694E-03 -3.602042600576137E-05
   5.797343974543884E-03  1.738000000000000E+03  1.277586909810306E-19
2462862.208000001 = A.D. 2030-Dec-26 16:59:31.2001 TDB 
  -6.112005106142296E+02 -3.612731413182353E+02  1.586366809154478E+03
   9.142545491329279E-04 -1.729763937615483E-03 -4.168292215793489E-05
   5.797343974543884E-03  1.738000000000000E+03  3.193967274525767E-20
2462862.902000002 = A.D. 2030-Dec-27 09:38:52.8001 TDB 
  -5.483565042064490E+02 -4.601817903710969E+02  1.583724049228695E+03
   1.177431136035972E-03 -1.562298889265086E-03 -4.627667193155449E-05
   5.797343974543882E-03  1.738000000000000E+03  1.437285273536595E-19
